start=new Date('2022-06-19T00:00:00.000Z').valueOf();
sats=[{"PERIAPSIS":"399.767","SEMIMAJOR_AXIS":"6778.914","MEAN_MOTION_DOT":"-0.00683442","RA_OF_ASC_NODE":"156.7467","SITE":"AFETR","NORAD_CAT_ID":"52656","TLE_LINE2":"2 52656  53.2167 156.7467 0001493  52.5126 112.2035 15.55473440  1300","CENTER_NAME":"EARTH","MEAN_ELEMENT_THEORY":"SGP4","APOAPSIS":"401.791","MEAN_MOTION":"15.55473440","CLASSIFICATION_TYPE":"U","BSTAR":"-0.01070900000000","TIME_SYSTEM":"UTC","LAUNCH_DATE":"2022-05-18","PERIOD":"92.576","OBJECT_ID":"2022-053A","ECCENTRICITY":"0.00014930","GP_ID":"206291676","RCS_SIZE":"LARGE","MEAN_MOTION_DDOT":"0.0000000000000","TLE_LINE1":"1 52656U 22053A   22167.08334491 -.00683442  00000-0 -10709-1 0  9993","REF_FRAME":"TEME","REV_AT_EPOCH":"130","EPHEMERIS_TYPE":"0","FILE":"3497002","DECAY_DATE":null,"OBJECT_TYPE":"PAYLOAD","ARG_OF_PERICENTER":"52.5126","MEAN_ANOMALY":"112.2035","ELEMENT_SET_NO":"999","EPOCH":"2022-06-16T02:00:01.000224","OBJECT_NAME":"STARLINK-4004","COUNTRY_CODE":"US","INCLINATION":"53.2167"},{"LAUNCH_DATE":"2022-05-18","PERIOD":"92.576","TIME_SYSTEM":"UTC","CLASSIFICATION_TYPE":"U","BSTAR":"-0.01101900000000","MEAN_MOTION":"15.55472607","RCS_SIZE":"LARGE","GP_ID":"206291573","MEAN_MOTION_DDOT":"0.0000000000000","ECCENTRICITY":"0.00014890","OBJECT_ID":"2022-053B","RA_OF_ASC_NODE":"156.7284","MEAN_MOTION_DOT":"-0.00701585","SEMIMAJOR_AXIS":"6778.916","PERIAPSIS":"399.772","CENTER_NAME":"EARTH","MEAN_ELEMENT_THEORY":"SGP4","APOAPSIS":"401.791","TLE_LINE2":"2 52657  53.2167 156.7284 0001489  51.3369 111.0228 15.55472607  1304","NORAD_CAT_ID":"52657","SITE":"AFETR","ELEMENT_SET_NO":"999","MEAN_ANOMALY":"111.0228","ARG_OF_PERICENTER":"51.3369","INCLINATION":"53.2167","COUNTRY_CODE":"US","OBJECT_NAME":"STARLINK-4084","EPOCH":"2022-06-16T02:00:01.000224","REF_FRAME":"TEME","TLE_LINE1":"1 52657U 22053B   22167.08334491 -.00701585  00000-0 -11019-1 0  9998","OBJECT_TYPE":"PAYLOAD","FILE":"3497002","EPHEMERIS_TYPE":"0","DECAY_DATE":null,"REV_AT_EPOCH":"130"},{"LAUNCH_DATE":"2022-05-18","PERIOD":"92.576","TIME_SYSTEM":"UTC","CLASSIFICATION_TYPE":"U","BSTAR":"-0.01102100000000","MEAN_MOTION":"15.55482035","MEAN_MOTION_DDOT":"0.0000000000000","GP_ID":"206291839","RCS_SIZE":"LARGE","ECCENTRICITY":"0.00014870","OBJECT_ID":"2022-053C","RA_OF_ASC_NODE":"156.7367","MEAN_MOTION_DOT":"-0.00701927","SEMIMAJOR_AXIS":"6778.889","PERIAPSIS":"399.746","CENTER_NAME":"EARTH","MEAN_ELEMENT_THEORY":"SGP4","APOAPSIS":"401.762","TLE_LINE2":"2 52658  53.2168 156.7367 0001487  52.7826 111.1440 15.55482035  1302","SITE":"AFETR","NORAD_CAT_ID":"52658","ELEMENT_SET_NO":"999","MEAN_ANOMALY":"111.1440","ARG_OF_PERICENTER":"52.7826","INCLINATION":"53.2168","COUNTRY_CODE":"US","EPOCH":"2022-06-16T02:00:01.000224","OBJECT_NAME":"STARLINK-4082","REF_FRAME":"TEME","TLE_LINE1":"1 52658U 22053C   22167.08334491 -.00701927  00000-0 -11021-1 0  9992","OBJECT_TYPE":"PAYLOAD","EPHEMERIS_TYPE":"0","FILE":"3497002","DECAY_DATE":null,"REV_AT_EPOCH":"130"},{"OBJECT_TYPE":"PAYLOAD","DECAY_DATE":null,"FILE":"3497002","EPHEMERIS_TYPE":"0","REV_AT_EPOCH":"130","REF_FRAME":"TEME","TLE_LINE1":"1 52659U 22053D   22167.08334491 -.00686679  00000-0 -10767-1 0  9995","INCLINATION":"53.2166","COUNTRY_CODE":"US","OBJECT_NAME":"STARLINK-3960","EPOCH":"2022-06-16T02:00:01.000224","ELEMENT_SET_NO":"999","MEAN_ANOMALY":"109.7684","ARG_OF_PERICENTER":"53.3798","APOAPSIS":"401.795","CENTER_NAME":"EARTH","MEAN_ELEMENT_THEORY":"SGP4","TLE_LINE2":"2 52659  53.2166 156.7352 0001469  53.3798 109.7684 15.55466475  1303","SITE":"AFETR","NORAD_CAT_ID":"52659","RA_OF_ASC_NODE":"156.7352","MEAN_MOTION_DOT":"-0.00686679","SEMIMAJOR_AXIS":"6778.934","PERIAPSIS":"399.803","GP_ID":"206291128","MEAN_MOTION_DDOT":"0.0000000000000","RCS_SIZE":"LARGE","ECCENTRICITY":"0.00014690","OBJECT_ID":"2022-053D","PERIOD":"92.577","LAUNCH_DATE":"2022-05-18","TIME_SYSTEM":"UTC","CLASSIFICATION_TYPE":"U","BSTAR":"-0.01076700000000","MEAN_MOTION":"15.55466475"},{"CLASSIFICATION_TYPE":"U","BSTAR":"-0.01100100000000","MEAN_MOTION":"15.55490694","LAUNCH_DATE":"2022-05-18","PERIOD":"92.575","TIME_SYSTEM":"UTC","OBJECT_ID":"2022-053E","RCS_SIZE":"LARGE","GP_ID":"206291330","MEAN_MOTION_DDOT":"0.0000000000000","ECCENTRICITY":"0.00015850","SEMIMAJOR_AXIS":"6778.864","PERIAPSIS":"399.654","RA_OF_ASC_NODE":"156.7559","MEAN_MOTION_DOT":"-0.00700982","SITE":"AFETR","NORAD_CAT_ID":"52660","CENTER_NAME":"EARTH","MEAN_ELEMENT_THEORY":"SGP4","APOAPSIS":"401.803","TLE_LINE2":"2 52660  53.2169 156.7559 0001585  49.2642 116.2294 15.55490694  1308","ARG_OF_PERICENTER":"49.2642","ELEMENT_SET_NO":"999","MEAN_ANOMALY":"116.2294","EPOCH":"2022-06-16T02:00:01.000224","OBJECT_NAME":"STARLINK-4081","INCLINATION":"53.2169","COUNTRY_CODE":"US","TLE_LINE1":"1 52660U 22053E   22167.08334491 -.00700982  00000-0 -11001-1 0  9993","REF_FRAME":"TEME","REV_AT_EPOCH":"130","OBJECT_TYPE":"PAYLOAD","EPHEMERIS_TYPE":"0","FILE":"3497002","DECAY_DATE":null},{"NORAD_CAT_ID":"52661","SITE":"AFETR","APOAPSIS":"401.751","MEAN_ELEMENT_THEORY":"SGP4","CENTER_NAME":"EARTH","TLE_LINE2":"2 52661  53.2169 156.7650 0001529  54.1459 112.1309 15.55495566  1305","SEMIMAJOR_AXIS":"6778.849","PERIAPSIS":"399.678","RA_OF_ASC_NODE":"156.7650","MEAN_MOTION_DOT":"-0.00701205","OBJECT_ID":"2022-053F","GP_ID":"206291228","MEAN_MOTION_DDOT":"0.0000000000000","RCS_SIZE":"LARGE","ECCENTRICITY":"0.00015290","CLASSIFICATION_TYPE":"U","BSTAR":"-0.01100300000000","MEAN_MOTION":"15.55495566","LAUNCH_DATE":"2022-05-18","PERIOD":"92.575","TIME_SYSTEM":"UTC","REV_AT_EPOCH":"130","OBJECT_TYPE":"PAYLOAD","DECAY_DATE":null,"EPHEMERIS_TYPE":"0","FILE":"3497002","TLE_LINE1":"1 52661U 22053F   22167.08334491 -.00701205  00000-0 -11003-1 0  9995","REF_FRAME":"TEME","EPOCH":"2022-06-16T02:00:01.000224","OBJECT_NAME":"STARLINK-4042","INCLINATION":"53.2169","COUNTRY_CODE":"US","ARG_OF_PERICENTER":"54.1459","ELEMENT_SET_NO":"999","MEAN_ANOMALY":"112.1309"},{"TLE_LINE1":"1 52662U 22053G   22167.08334491 -.00701504  00000-0 -11004-1 0  9999","REF_FRAME":"TEME","REV_AT_EPOCH":"130","OBJECT_TYPE":"PAYLOAD","FILE":"3497002","EPHEMERIS_TYPE":"0","DECAY_DATE":null,"ARG_OF_PERICENTER":"48.7239","ELEMENT_SET_NO":"999","MEAN_ANOMALY":"119.1191","OBJECT_NAME":"STARLINK-4044","EPOCH":"2022-06-16T02:00:01.000224","INCLINATION":"53.2169","COUNTRY_CODE":"US","SEMIMAJOR_AXIS":"6778.822","PERIAPSIS":"399.602","RA_OF_ASC_NODE":"156.7844","MEAN_MOTION_DOT":"-0.00701504","NORAD_CAT_ID":"52662","SITE":"AFETR","CENTER_NAME":"EARTH","MEAN_ELEMENT_THEORY":"SGP4","APOAPSIS":"401.772","TLE_LINE2":"2 52662  53.2169 156.7844 0001601  48.7239 119.1191 15.55505058  1301","CLASSIFICATION_TYPE":"U","BSTAR":"-0.01100400000000","MEAN_MOTION":"15.55505058","LAUNCH_DATE":"2022-05-18","PERIOD":"92.574","TIME_SYSTEM":"UTC","OBJECT_ID":"2022-053G","GP_ID":"206291774","RCS_SIZE":"LARGE","MEAN_MOTION_DDOT":"0.0000000000000","ECCENTRICITY":"0.00016010"},{"SEMIMAJOR_AXIS":"6778.807","PERIAPSIS":"399.671","RA_OF_ASC_NODE":"156.7936","MEAN_MOTION_DOT":"-0.00702011","NORAD_CAT_ID":"52663","SITE":"AFETR","APOAPSIS":"401.674","MEAN_ELEMENT_THEORY":"SGP4","CENTER_NAME":"EARTH","TLE_LINE2":"2 52663  53.2169 156.7936 0001478  54.9493 113.6766 15.55510040  1301","CLASSIFICATION_TYPE":"U","BSTAR":"-0.01101100000000","MEAN_MOTION":"15.55510040","LAUNCH_DATE":"2022-05-18","PERIOD":"92.574","TIME_SYSTEM":"UTC","OBJECT_ID":"2022-053H","GP_ID":"206291474","RCS_SIZE":"LARGE","MEAN_MOTION_DDOT":"0.0000000000000","ECCENTRICITY":"0.00014780","TLE_LINE1":"1 52663U 22053H   22167.08334491 -.00702011  00000-0 -11011-1 0  9992","REF_FRAME":"TEME","REV_AT_EPOCH":"130","OBJECT_TYPE":"PAYLOAD","DECAY_DATE":null,"EPHEMERIS_TYPE":"0","FILE":"3497002","ARG_OF_PERICENTER":"54.9493","ELEMENT_SET_NO":"999","MEAN_ANOMALY":"113.6766","OBJECT_NAME":"STARLINK-4037","EPOCH":"2022-06-16T02:00:01.000224","INCLINATION":"53.2169","COUNTRY_CODE":"US"},{"OBJECT_NAME":"STARLINK-4070","EPOCH":"2022-06-16T02:00:01.000224","COUNTRY_CODE":"US","INCLINATION":"53.2169","ARG_OF_PERICENTER":"45.0964","MEAN_ANOMALY":"121.9630","ELEMENT_SET_NO":"999","REV_AT_EPOCH":"130","DECAY_DATE":null,"FILE":"3497002","EPHEMERIS_TYPE":"0","OBJECT_TYPE":"PAYLOAD","TLE_LINE1":"1 52664U 22053J   22167.08334491 -.00702705  00000-0 -11026-1 0  9999","REF_FRAME":"TEME","OBJECT_ID":"2022-053J","ECCENTRICITY":"0.00016290","GP_ID":"206291677","MEAN_MOTION_DDOT":"0.0000000000000","RCS_SIZE":"LARGE","MEAN_MOTION":"15.55501242","BSTAR":"-0.01102600000000","CLASSIFICATION_TYPE":"U","TIME_SYSTEM":"UTC","LAUNCH_DATE":"2022-05-18","PERIOD":"92.575","NORAD_CAT_ID":"52664","SITE":"AFETR","TLE_LINE2":"2 52664  53.2169 156.7748 0001629  45.0964 121.9630 15.55501242  1301","APOAPSIS":"401.802","CENTER_NAME":"EARTH","MEAN_ELEMENT_THEORY":"SGP4","PERIAPSIS":"399.594","SEMIMAJOR_AXIS":"6778.833","MEAN_MOTION_DOT":"-0.00702705","RA_OF_ASC_NODE":"156.7748"},{"SITE":"AFETR","NORAD_CAT_ID":"52665","APOAPSIS":"401.916","CENTER_NAME":"EARTH","MEAN_ELEMENT_THEORY":"SGP4","TLE_LINE2":"2 52665  53.2170 156.8193 0001917  35.3618 136.3967 15.55529295  1308","SEMIMAJOR_AXIS":"6778.751","PERIAPSIS":"399.317","RA_OF_ASC_NODE":"156.8193","MEAN_MOTION_DOT":"-0.00703257","OBJECT_ID":"2022-053K","GP_ID":"206291574","RCS_SIZE":"LARGE","MEAN_MOTION_DDOT":"0.0000000000000","ECCENTRICITY":"0.00019170","CLASSIFICATION_TYPE":"U","BSTAR":"-0.01102300000000","MEAN_MOTION":"15.55529295","PERIOD":"92.573","LAUNCH_DATE":"2022-05-18","TIME_SYSTEM":"UTC","REV_AT_EPOCH":"130","OBJECT_TYPE":"PAYLOAD","DECAY_DATE":null,"EPHEMERIS_TYPE":"0","FILE":"3497002","TLE_LINE1":"1 52665U 22053K   22167.08334491 -.00703257  00000-0 -11023-1 0  9990","REF_FRAME":"TEME","EPOCH":"2022-06-16T02:00:01.000224","OBJECT_NAME":"STARLINK-4064","INCLINATION":"53.2170","COUNTRY_CODE":"US","ARG_OF_PERICENTER":"35.3618","ELEMENT_SET_NO":"999","MEAN_ANOMALY":"136.3967"}];
